[{"OBJECT_NAME":"STARLINK-36039","OBJECT_ID":"2025-270AA","EPOCH":"2026-03-09T00:49:54.128064","MEAN_MOTION":15.27578172,"ECCENTRICITY":0.00011199,"INCLINATION":43.0016,"RA_OF_ASC_NODE":60.0546,"ARG_OF_PERICENTER":247.1761,"MEAN_ANOMALY":112.8972,"EPHEMERIS_TYPE":0,"CLASSIFICATION_TYPE":"U","NORAD_CAT_ID":66612,"ELEMENT_SET_NO":999,"REV_AT_EPOCH":1760,"BSTAR":0.0013345908,"MEAN_MOTION_DOT":0.00036643,"MEAN_MOTION_DDOT":0},{"OBJECT_NAME":"SL-3 R\/B","OBJECT_ID":"1982-027B","EPOCH":"2026-03-09T22:44:40.208640","MEAN_MOTION":15.28335844,"ECCENTRICITY":0.00065199,"INCLINATION":81.188,"RA_OF_ASC_NODE":37.4466,"ARG_OF_PERICENTER":276.581,"MEAN_ANOMALY":83.4683,"EPHEMERIS_TYPE":0,"CLASSIFICATION_TYPE":"U","NORAD_CAT_ID":13121,"ELEMENT_SET_NO":999,"REV_AT_EPOCH":39859,"BSTAR":0.00030526741,"MEAN_MOTION_DOT":8.453e-5,"MEAN_MOTION_DDOT":0}]
